2021-014B               
1 47692U 21014B   21136.56143938 -.00000090  00000-0  00000-0 0  9998
2 47692  63.4091 288.9690 0007465 309.7937  50.2424 13.43777496 10947
YAOGAN-31 H             
1 47693U 21014C   21136.60136090 -.00000090  00000-0  00000-0 0  9995
2 47693  63.4086 289.0982 0012944 319.9833  40.0231 13.45209212 10945
YAOGAN-31 J             
1 47695U 21014E   21136.60117179 -.00000090  00000-0  00000-0 0  9994
2 47695  63.4073 288.1983 0012914 320.7002  39.3078 13.45210040 10962
FLOCK 4S-41             
1 47698U 21006ER  21136.44534788  .00002260  00000-0  13468-3 0  9994
2 47698  97.4994 198.2076 0010449 204.5135 155.5600 15.12151005 17202
AMAZONIA 1              
1 47699U 21015A   21136.17766390 -.00000044  00000-0  00000-0 0  9995
2 47699  98.4958 211.1802 0001486  95.1632 264.9763 14.40801998 11092
SAI-1 NANOCONNECT-2     
1 47701U 21015C   21136.14857650 -.00000071  00000-0  00000-0 0  9996
2 47701  97.4630 210.9406 0013949  52.7086 307.5643 15.22548178 11706
SPACEBEE-87             
1 47703U 21015E   21136.45861426  .00003832  00000-0  17147-3 0  9998
2 47703  97.4528 211.0629 0011132  35.4803 324.7172 15.21839573 11732
SPACEBEE-86             
1 47704U 21015F   21136.39238908  .00003639  00000-0  16291-3 0  9999
2 47704  97.4526 210.9971 0011107  35.7879 324.4100 15.21861767 11702
SPACEBEE-85             
1 47705U 21015G   21136.19550086  .00003759  00000-0  16823-3 0  9996
2 47705  97.4526 210.8003 0011116  36.2927 323.9061 15.21853061 11694
SPACEBEE-84             
1 47706U 21015H   21136.39282097  .00003658  00000-0  16377-3 0  9995
2 47706  97.4525 210.9955 0011061  35.5941 324.6030 15.21857465 11728
SPACEBEE-83             
1 47707U 21015J   21136.45925776  .00003751  00000-0  16796-3 0  9990
2 47707  97.4526 211.0594 0011036  35.0168 325.1792 15.21830252 11736
SPACEBEE-82             
1 47708U 21015K   21136.19538760  .00004123  00000-0  18405-3 0  9998
2 47708  97.4524 210.7999 0011080  36.4651 323.7337 15.21879243 11698
SPACEBEE-81             
1 47709U 21015L   21136.39233506  .00003904  00000-0  17440-3 0  9995
2 47709  97.4524 210.9952 0011015  35.6782 324.5188 15.21891199 11646
SPACEBEE-80             
1 47710U 21015M   21136.39241032  .00004179  00000-0  18641-3 0  9999
2 47710  97.4524 210.9948 0011023  35.6774 324.5196 15.21894808 11721
SPACEBEE-76             
1 47711U 21015N   21136.45699307  .00004311  00000-0  19193-3 0  9990
2 47711  97.4524 211.0616 0010945  35.6967 324.4999 15.21944434 11734
SPACEBEE-79             
1 47712U 21015P   21136.45820699  .00004299  00000-0  19166-3 0  9996
2 47712  97.4524 211.0598 0010960  35.3034 324.8925 15.21899794 11734
SPACEBEE-77             
1 47714U 21015Q   21136.19446222  .00004308  00000-0  19192-3 0  9995
2 47714  97.4524 210.8004 0010958  36.4768 323.7212 15.21924134 11619
SPACEBEE-78             
1 47715U 21015R   21136.45853509  .00004137  00000-0  18469-3 0  9991
2 47715  97.4527 211.0606 0010951  34.9233 325.2719 15.21877527 11732
ARKTIKA-M 1             
1 47719U 21016A   21135.21003264 -.00000104  00000-0  00000-0 0  9994
2 47719  63.2790 284.6138 7179139 270.2683  14.5879  2.00620875  1515
SDSAT                   
1 47721U 21015W   21136.24215021 -.00000070  00000-0  00000-0 0  9998
2 47721  97.4613 210.8507 0012441  15.2620 344.9294 15.20748920 11683
STARLINK-2068           
1 47722U 21017A   21136.58334491  .00064320  00000-0  45863-3 0  9997
2 47722  53.0438 179.9836 0002812  16.7790 118.2606 15.73222084  1833
STARLINK-2107           
1 47723U 21017B   21136.58334491  .00069368  00000-0  49526-3 0  9995
2 47723  53.0437 179.9879 0002667  17.8788 115.3223 15.73162007  1838
STARLINK-2116           
1 47724U 21017C   21136.58334491  .00069627  00000-0  49684-3 0  9999
2 47724  53.0438 179.9871 0002963  25.4091 108.4168 15.73172036  1826
STARLINK-2125           
1 47725U 21017D   21136.58334491 -.01136533  00000-0 -11012-1 0  9996
2 47725  53.0415 180.0482 0000652 309.9406 155.5077 15.68201881  1823
STARLINK-2126           
1 47726U 21017E   21136.58334491 -.01116653  00000-0 -10653-1 0  9998
2 47726  53.0413 180.0302 0000462 344.3923 129.1803 15.68964937  1821
STARLINK-2129           
1 47727U 21017F   21136.58334491 -.00000010  00000-0  43604-5 0  9992
2 47727  53.0416 179.9824 0002425  19.6195 114.6327 15.73212258  1823
STARLINK-2131           
1 47728U 21017G   21136.58334491 -.01109103  00000-0 -99856-2 0  9995
2 47728  53.0417 180.0099 0002182   7.7466 117.2665 15.70311551  1828
STARLINK-2132           
1 47729U 21017H   21136.58334491  .00031020  00000-0  22465-3 0  9998
2 47729  53.0436 179.9890 0002648  25.5434 107.0253 15.73191152  1822
STARLINK-2140           
1 47730U 21017J   21136.53402090 -.00001231  00000-0 -63754-4 0  9996
2 47730  53.0535 189.2729 0001426  65.5830 294.5307 15.06384940 12667
STARLINK-2141           
1 47731U 21017K   21136.58334491 -.01055579  00000-0 -52575-1 0  9992
2 47731  53.0393 184.3421 0001369  66.4740  12.9893 15.20170852  1819
STARLINK-2142           
1 47732U 21017L   21136.58334491 -.00035734  00000-0 -25057-3 0  9990
2 47732  53.0436 179.9811 0002857  28.3949 107.3123 15.73252692  1829
STARLINK-2143           
1 47733U 21017M   21136.52064848 -.00001015  00000-0 -49252-4 0  9990
2 47733  53.0533 194.3307 0001389  77.5625 282.5519 15.06386321 12645
STARLINK-2144           
1 47734U 21017N   21136.58334491 -.01055394  00000-0 -53123-1 0  9990
2 47734  53.0387 184.3269 0001389  58.9700 348.5191 15.19810457  1818
STARLINK-2146           
1 47735U 21017P   21136.58334491 -.00000019  00000-0  42973-5 0  9998
2 47735  53.0416 179.9769 0002538  17.7822 119.0134 15.73212263  1822
STARLINK-2147           
1 47736U 21017Q   21136.58334491 -.01123448  00000-0 -10400-1 0  9999
2 47736  53.0415 180.0156 0001942 324.7450 156.6505 15.69688863  1828
STARLINK-2148           
1 47737U 21017R   21136.58334491 -.00000006  00000-0  43938-5 0  9998
2 47737  53.0417 179.9784 0002486  18.9152 117.2446 15.73212262  1828
STARLINK-2149           
1 47738U 21017S   21136.58334491 -.00540250  00000-0 -92452-2 0  9992
2 47738  53.0418 181.3870 0004541 291.4374 237.9321 15.52548365  1826
STARLINK-2150           
1 47739U 21017T   21136.44554777 -.00000251  00000-0  20171-5 0  9992
2 47739  53.0538 199.6680 0001225  77.0903 283.0223 15.06402182 12564
STARLINK-2152           
1 47740U 21017U   21136.58334491 -.01054628  00000-0 -54126-1 0  9990
2 47740  53.0398 184.3438 0001424  53.2042 308.0944 15.19143208  1812
STARLINK-2154           
1 47741U 21017V   21136.58334491 -.01056995  00000-0 -50171-1 0  9996
2 47741  53.0431 184.4090 0001398  74.7801 147.0388 15.21807760  1813
STARLINK-2156           
1 47742U 21017W   21136.58334491 -.01110779  00000-0 -10164-1 0  9996
2 47742  53.0415 180.0151 0002423   2.1586 119.7670 15.69928029  1837
STARLINK-2157           
1 47743U 21017X   21136.58334491 -.01121195  00000-0 -10863-1 0  9997
2 47743  53.0413 180.0396 0002264 330.7569 138.7451 15.68586905  1831
STARLINK-2158           
1 47744U 21017Y   21136.58334491 -.01122120  00000-0 -10364-1 0  9993
2 47744  53.0418 180.0199 0001843 331.2547 149.1346 15.69741035  1839
STARLINK-2159           
1 47745U 21017Z   21136.58334491 -.01055115  00000-0 -53589-1 0  9999
2 47745  53.0395 184.3239 0001429  54.7329 338.9525 15.19501850  1810
STARLINK-2160           
1 47746U 21017AA  21136.58334491 -.01055568  00000-0 -52862-1 0  9995
2 47746  53.0387 184.3366 0001448  56.1829   7.1539 15.19984310  1811
STARLINK-2161           
1 47747U 21017AB  21136.58334491 -.01114610  00000-0 -10709-1 0  9994
2 47747  53.0415 180.0358 0002271 353.2152 118.4488 15.68771709  1834
STARLINK-2162           
1 47748U 21017AC  21136.58334491 -.01123756  00000-0 -10626-1 0  9994
2 47748  53.0416 180.0295 0003619 214.2904 261.0521 15.69162065  1837
STARLINK-2163           
1 47749U 21017AD  21136.58334491 -.01114983  00000-0 -10887-1 0  9996
2 47749  53.0417 180.0455 0002068 348.5430 119.2378 15.68385692  1835
STARLINK-2164           
1 47750U 21017AE  21136.58334491 -.01117104  00000-0 -10400-1 0  9997
2 47750  53.0415 180.0216 0001502 347.7407 131.1815 15.69541927  1832
STARLINK-2168           
1 47751U 21017AF  21136.58334491 -.00002340  00000-0 -19825-4 0  9995
2 47751  53.0483 183.3237 0009438 335.4393 313.8368 15.62445077  1824
STARLINK-2169           
1 47752U 21017AG  21136.58334491 -.00980423  00000-0 -22800-1 0  9997
2 47752  53.0423 181.4771 0001449  57.8302  87.0373 15.44484829  1824
STARLINK-2170           
1 47753U 21017AH  21136.58334491 -.01053865  00000-0 -54690-1 0  9992
2 47753  53.0411 184.4071 0001341  61.0730 267.0145 15.18760953  1813
STARLINK-2171           
1 47754U 21017AJ  21136.58334491 -.01055912  00000-0 -52313-1 0  9998
2 47754  53.0395 184.3505 0001377  70.8427  24.6093 15.20352668  1818
STARLINK-2172           
1 47755U 21017AK  21136.58334491 -.00997897  00000-0 -23146-1 0  9997
2 47755  53.0425 181.4462 0001490  55.6904 110.1391 15.44608921  1825
STARLINK-2174           
1 47756U 21017AL  21136.58334491 -.01056003  00000-0 -52036-1 0  9994
2 47756  53.0399 184.3577 0001413  69.9042  41.4528 15.20536292  1813
STARLINK-2175           
1 47757U 21017AM  21136.58334491 -.00472755  00000-0 -16265-1 0  9994
2 47757  53.0426 186.2789 0001370  62.3594 214.3292 15.31582010  1812
STARLINK-2176           
1 47758U 21017AN  21136.58334491 -.00466122  00000-0 -16055-1 0  9993
2 47758  53.0440 186.2712 0004553 286.3369 337.6244 15.31496066  1810
STARLINK-2177           
1 47759U 21017AP  21136.58334491 -.00473628  00000-0 -16054-1 0  9992
2 47759  53.0437 186.3136 0001362  59.4017 293.5434 15.32060037  1820
STARLINK-2178           
1 47760U 21017AQ  21136.42112362 -.00000959  00000-0 -45519-4 0  9992
2 47760  53.0542 194.7810 0001273  72.2564 287.8564 15.06397687 12605
